0 SL-16 DEB
1 22420U 92093DM  13281.20022257  .00001717  00000-0  30272-3 0  3760
2 22420 070.9915 208.0643 0082175 175.2221 256.0634 14.66929826101145
0 SL-16 DEB
1 22420U 92093DM  13283.45977087  .00002782  00000-0  48317-3 0  3772
2 22420 070.9918 202.9023 0082122 171.4051 308.7529 14.66945914101474
0 SL-16 DEB
1 22420U 92093DM  13285.76158089  .00002415  00000-0  42093-3 0  3780
2 22420 070.9923 197.6413 0081950 167.5785 224.6796 14.66955633101810
0 SL-16 DEB
1 22420U 92093DM  13287.81193692  .00003666  00000-0  63294-3 0  3793
2 22420 070.9925 192.9554 0081825 164.1313 252.7862 14.66966547102113
0 SL-16 DEB
1 22420U 92093DM  13289.85987385  .00003962  00000-0  68291-3 0  3802
2 22420 070.9922 188.2749 0081693 160.7360 268.1794 14.66983703102412
0 SL-16 DEB
1 22420U 92093DM  13292.12536492  .00003591  00000-0  61993-3 0  3816
2 22420 070.9919 183.0977 0081644 156.8726 352.7382 14.66996966102746
0 SL-16 DEB
1 22420U 92093DM  13294.17384292  .00004429  00000-0  76176-3 0  3823
2 22420 070.9911 178.4155 0081449 153.4609 011.2229 14.67009468103044
